start=new Date('2023-03-27T00:00:00.000Z').valueOf();
sats=[{"SEMIMAJOR_AXIS":"6917.921","REF_FRAME":"TEME","APOAPSIS":"540.809","BSTAR":"0.00132280000000","RA_OF_ASC_NODE":"301.9358","ECCENTRICITY":"0.00014780","TLE_LINE2":"2 52699  53.2157 301.9358 0001478  52.0188 308.0938 15.08826661 48386","ELEMENT_SET_NO":"999","MEAN_MOTION":"15.08826661","LAUNCH_DATE":"2022-05-18","MEAN_MOTION_DDOT":"0.0000000000000","COUNTRY_CODE":"US","NORAD_CAT_ID":"52699","INCLINATION":"53.2157","FILE":"3871964","PERIAPSIS":"538.764","TIME_SYSTEM":"UTC","CLASSIFICATION_TYPE":"U","OBJECT_TYPE":"PAYLOAD","ARG_OF_PERICENTER":"52.0188","TLE_LINE1":"1 52699U 22053AV  23085.91970976  .00020819  00000-0  13228-2 0  9997","OBJECT_NAME":"STARLINK-3987","PERIOD":"95.438","MEAN_ELEMENT_THEORY":"SGP4","CENTER_NAME":"EARTH","EPHEMERIS_TYPE":"0","MEAN_MOTION_DOT":"0.00020819","OBJECT_ID":"2022-053AV","SITE":"AFETR","MEAN_ANOMALY":"308.0938","DECAY_DATE":null,"EPOCH":"2023-03-26T22:04:22.923264","RCS_SIZE":"LARGE","GP_ID":"228919826","REV_AT_EPOCH":"4838"},{"OBJECT_NAME":"STARLINK-4034","TLE_LINE1":"1 52700U 22053AW  23085.93446299  .00022326  00000-0  14168-2 0  9997","OBJECT_TYPE":"PAYLOAD","ARG_OF_PERICENTER":"91.9347","CLASSIFICATION_TYPE":"U","TIME_SYSTEM":"UTC","FILE":"3871964","PERIAPSIS":"539.088","INCLINATION":"53.2147","NORAD_CAT_ID":"52700","LAUNCH_DATE":"2022-05-18","COUNTRY_CODE":"US","MEAN_MOTION_DDOT":"0.0000000000000","ELEMENT_SET_NO":"999","TLE_LINE2":"2 52700  53.2147 311.8455 0000994  91.9347 268.1759 15.08830168 48235","MEAN_MOTION":"15.08830168","RA_OF_ASC_NODE":"311.8455","ECCENTRICITY":"0.00009940","BSTAR":"0.00141680000000","APOAPSIS":"540.463","SEMIMAJOR_AXIS":"6917.910","REF_FRAME":"TEME","REV_AT_EPOCH":"4823","GP_ID":"228919576","RCS_SIZE":"LARGE","DECAY_DATE":null,"EPOCH":"2023-03-26T22:25:37.602336","SITE":"AFETR","MEAN_ANOMALY":"268.1759","OBJECT_ID":"2022-053AW","MEAN_MOTION_DOT":"0.00022326","CENTER_NAME":"EARTH","EPHEMERIS_TYPE":"0","MEAN_ELEMENT_THEORY":"SGP4","PERIOD":"95.438"},{"PERIOD":"95.438","MEAN_ELEMENT_THEORY":"SGP4","EPHEMERIS_TYPE":"0","CENTER_NAME":"EARTH","MEAN_MOTION_DOT":"0.00024057","OBJECT_ID":"2022-053AX","SITE":"AFETR","MEAN_ANOMALY":"257.8797","EPOCH":"2023-03-26T21:35:53.411136","DECAY_DATE":null,"RCS_SIZE":"LARGE","GP_ID":"228918826","REV_AT_EPOCH":"4845","SEMIMAJOR_AXIS":"6917.912","REF_FRAME":"TEME","APOAPSIS":"540.457","BSTAR":"0.00152490000000","ECCENTRICITY":"0.00009820","RA_OF_ASC_NODE":"297.0000","ELEMENT_SET_NO":"999","TLE_LINE2":"2 52701  53.2139 297.0000 0000982 102.2306 257.8797 15.08829552 48452","MEAN_MOTION":"15.08829552","COUNTRY_CODE":"US","MEAN_MOTION_DDOT":"0.0000000000000","LAUNCH_DATE":"2022-05-18","NORAD_CAT_ID":"52701","INCLINATION":"53.2139","FILE":"3871964","PERIAPSIS":"539.098","TIME_SYSTEM":"UTC","CLASSIFICATION_TYPE":"U","OBJECT_TYPE":"PAYLOAD","ARG_OF_PERICENTER":"102.2306","TLE_LINE1":"1 52701U 22053AX  23085.89992374  .00024057  00000-0  15249-2 0  9997","OBJECT_NAME":"STARLINK-4003"},{"EPOCH":"2023-03-26T22:18:56.904192","DECAY_DATE":null,"MEAN_ANOMALY":"267.2814","SITE":"AFETR","RCS_SIZE":"LARGE","GP_ID":"228919075","REV_AT_EPOCH":"4823","MEAN_ELEMENT_THEORY":"SGP4","PERIOD":"95.438","EPHEMERIS_TYPE":"0","CENTER_NAME":"EARTH","MEAN_MOTION_DOT":"0.00016723","OBJECT_ID":"2022-053AY","NORAD_CAT_ID":"52702","PERIAPSIS":"538.996","FILE":"3871964","INCLINATION":"53.2158","TIME_SYSTEM":"UTC","CLASSIFICATION_TYPE":"U","OBJECT_NAME":"STARLINK-4033","TLE_LINE1":"1 52702U 22053AY  23085.92982528  .00016723  00000-0  10666-2 0  9991","OBJECT_TYPE":"PAYLOAD","ARG_OF_PERICENTER":"92.8307","APOAPSIS":"540.554","REF_FRAME":"TEME","SEMIMAJOR_AXIS":"6917.910","ECCENTRICITY":"0.00011260","RA_OF_ASC_NODE":"311.8863","BSTAR":"0.00106660000000","MEAN_MOTION_DDOT":"0.0000000000000","COUNTRY_CODE":"US","LAUNCH_DATE":"2022-05-18","MEAN_MOTION":"15.08830267","TLE_LINE2":"2 52702  53.2158 311.8863 0001126  92.8307 267.2814 15.08830267 48238","ELEMENT_SET_NO":"999"},{"MEAN_ELEMENT_THEORY":"SGP4","PERIOD":"95.438","EPHEMERIS_TYPE":"0","CENTER_NAME":"EARTH","MEAN_MOTION_DOT":"0.00001645","OBJECT_ID":"2022-053AZ","EPOCH":"2023-03-26T21:19:58.510560","DECAY_DATE":null,"SITE":"AFETR","MEAN_ANOMALY":"229.4913","RCS_SIZE":"LARGE","GP_ID":"228919326","REV_AT_EPOCH":"4717","APOAPSIS":"541.043","REF_FRAME":"TEME","SEMIMAJOR_AXIS":"6917.910","ECCENTRICITY":"0.00018330","RA_OF_ASC_NODE":"297.0567","BSTAR":"0.00012147000000","MEAN_MOTION_DDOT":"0.0000000000000","COUNTRY_CODE":"US","LAUNCH_DATE":"2022-05-18","MEAN_MOTION":"15.08830275","TLE_LINE2":"2 52703  53.2166 297.0567 0001833 130.6239 229.4913 15.08830275 47175","ELEMENT_SET_NO":"999","NORAD_CAT_ID":"52703","PERIAPSIS":"538.507","FILE":"3871964","INCLINATION":"53.2166","CLASSIFICATION_TYPE":"U","TIME_SYSTEM":"UTC","TLE_LINE1":"1 52703U 22053AZ  23085.88887165  .00001645  00000-0  12147-3 0  9992","OBJECT_NAME":"STARLINK-4020","OBJECT_TYPE":"PAYLOAD","ARG_OF_PERICENTER":"130.6239"},{"RCS_SIZE":"LARGE","SITE":"AFETR","MEAN_ANOMALY":"259.3913","EPOCH":"2023-03-26T21:41:11.632704","DECAY_DATE":null,"REV_AT_EPOCH":"4845","GP_ID":"228920077","EPHEMERIS_TYPE":"0","CENTER_NAME":"EARTH","PERIOD":"95.439","MEAN_ELEMENT_THEORY":"SGP4","OBJECT_ID":"2022-053BA","MEAN_MOTION_DOT":"0.00021249","INCLINATION":"53.2137","FILE":"3871964","PERIAPSIS":"539.079","NORAD_CAT_ID":"52704","ARG_OF_PERICENTER":"100.7196","OBJECT_TYPE":"PAYLOAD","OBJECT_NAME":"STARLINK-3999","TLE_LINE1":"1 52704U 22053BA  23085.90360686  .00021249  00000-0  13498-2 0  9991","CLASSIFICATION_TYPE":"U","TIME_SYSTEM":"UTC","BSTAR":"0.00134980000000","ECCENTRICITY":"0.00010400","RA_OF_ASC_NODE":"296.9839","REF_FRAME":"TEME","SEMIMAJOR_AXIS":"6917.934","APOAPSIS":"540.518","TLE_LINE2":"2 52704  53.2137 296.9839 0001040 100.7196 259.3913 15.08822605 48456","MEAN_MOTION":"15.08822605","ELEMENT_SET_NO":"999","MEAN_MOTION_DDOT":"0.0000000000000","COUNTRY_CODE":"US","LAUNCH_DATE":"2022-05-18"},{"MEAN_ELEMENT_THEORY":"SGP4","PERIOD":"95.438","CENTER_NAME":"EARTH","EPHEMERIS_TYPE":"0","MEAN_MOTION_DOT":"0.00018607","OBJECT_ID":"2022-053BB","DECAY_DATE":null,"EPOCH":"2023-03-26T21:25:16.015872","MEAN_ANOMALY":"281.4706","SITE":"AFETR","RCS_SIZE":"LARGE","GP_ID":"228918326","REV_AT_EPOCH":"4845","APOAPSIS":"540.734","SEMIMAJOR_AXIS":"6917.921","REF_FRAME":"TEME","RA_OF_ASC_NODE":"297.0238","ECCENTRICITY":"0.00013700","BSTAR":"0.00118450000000","LAUNCH_DATE":"2022-05-18","COUNTRY_CODE":"US","MEAN_MOTION_DDOT":"0.0000000000000","MEAN_MOTION":"15.08826580","TLE_LINE2":"2 52705  53.2146 297.0238 0001370  78.6440 281.4706 15.08826580 48455","ELEMENT_SET_NO":"999","NORAD_CAT_ID":"52705","FILE":"3871964","PERIAPSIS":"538.839","INCLINATION":"53.2146","CLASSIFICATION_TYPE":"U","TIME_SYSTEM":"UTC","OBJECT_NAME":"STARLINK-3844","TLE_LINE1":"1 52705U 22053BB  23085.89254648  .00018607  00000-0  11845-2 0  9998","ARG_OF_PERICENTER":"78.6440","OBJECT_TYPE":"PAYLOAD"},{"REV_AT_EPOCH":"4845","GP_ID":"228918576","RCS_SIZE":"LARGE","SITE":"AFETR","MEAN_ANOMALY":"276.1017","EPOCH":"2023-03-26T21:30:35.692416","DECAY_DATE":null,"OBJECT_ID":"2022-053BC","MEAN_MOTION_DOT":"0.00022698","EPHEMERIS_TYPE":"0","CENTER_NAME":"EARTH","PERIOD":"95.439","MEAN_ELEMENT_THEORY":"SGP4","OBJECT_TYPE":"PAYLOAD","ARG_OF_PERICENTER":"84.0098","TLE_LINE1":"1 52706U 22053BC  23085.89624644  .00022698  00000-0  14405-2 0  9996","OBJECT_NAME":"STARLINK-3970","CLASSIFICATION_TYPE":"U","TIME_SYSTEM":"UTC","INCLINATION":"53.2146","FILE":"3871964","PERIAPSIS":"539.071","NORAD_CAT_ID":"52706","TLE_LINE2":"2 52706  53.2146 297.0075 0001074  84.0098 276.1017 15.08817628 48455","ELEMENT_SET_NO":"999","MEAN_MOTION":"15.08817628","MEAN_MOTION_DDOT":"0.0000000000000","COUNTRY_CODE":"US","LAUNCH_DATE":"2022-05-18","BSTAR":"0.00144050000000","ECCENTRICITY":"0.00010740","RA_OF_ASC_NODE":"297.0075","SEMIMAJOR_AXIS":"6917.949","REF_FRAME":"TEME","APOAPSIS":"540.557"},{"ARG_OF_PERICENTER":"80.8545","OBJECT_TYPE":"PAYLOAD","TLE_LINE1":"1 52707U 22053BD  23085.87877341  .00009632  00000-0  62274-3 0  9990","OBJECT_NAME":"STARLINK-4007","TIME_SYSTEM":"UTC","CLASSIFICATION_TYPE":"U","INCLINATION":"53.2151","PERIAPSIS":"538.642","FILE":"3871964","NORAD_CAT_ID":"52707","ELEMENT_SET_NO":"999","TLE_LINE2":"2 52707  53.2151 297.0183 0001667  80.8545 279.2636 15.08823582 48515","MEAN_MOTION":"15.08823582","LAUNCH_DATE":"2022-05-18","MEAN_MOTION_DDOT":"0.0000000000000","COUNTRY_CODE":"US","BSTAR":"0.00062274000000","RA_OF_ASC_NODE":"297.0183","ECCENTRICITY":"0.00016670","SEMIMAJOR_AXIS":"6917.931","REF_FRAME":"TEME","APOAPSIS":"540.949","REV_AT_EPOCH":"4851","GP_ID":"228919827","RCS_SIZE":"LARGE","MEAN_ANOMALY":"279.2636","SITE":"AFETR","DECAY_DATE":null,"EPOCH":"2023-03-26T21:05:26.022624","OBJECT_ID":"2022-053BD","MEAN_MOTION_DOT":"0.00009632","CENTER_NAME":"EARTH","EPHEMERIS_TYPE":"0","PERIOD":"95.439","MEAN_ELEMENT_THEORY":"SGP4"},{"SITE":"AFETR","MEAN_ANOMALY":"309.0598","DECAY_DATE":null,"EPOCH":"2023-03-26T20:26:59.630784","RCS_SIZE":"LARGE","GP_ID":"228919577","REV_AT_EPOCH":"4865","PERIOD":"95.438","MEAN_ELEMENT_THEORY":"SGP4","CENTER_NAME":"EARTH","EPHEMERIS_TYPE":"0","MEAN_MOTION_DOT":"0.00024568","OBJECT_ID":"2022-053BE","NORAD_CAT_ID":"52708","INCLINATION":"53.2161","PERIAPSIS":"538.633","FILE":"3871964","CLASSIFICATION_TYPE":"U","TIME_SYSTEM":"UTC","OBJECT_TYPE":"PAYLOAD","ARG_OF_PERICENTER":"51.0539","OBJECT_NAME":"STARLINK-3962","TLE_LINE1":"1 52708U 22053BE  23085.85207906  .00024568  00000-0  15565-2 0  9998","REF_FRAME":"TEME","SEMIMAJOR_AXIS":"6917.894","APOAPSIS":"540.885","BSTAR":"0.00155650000000","RA_OF_ASC_NODE":"297.2004","ECCENTRICITY":"0.00016280","ELEMENT_SET_NO":"999","TLE_LINE2":"2 52708  53.2161 297.2004 0001628  51.0539 309.0598 15.08835633 48655","MEAN_MOTION":"15.08835633","LAUNCH_DATE":"2022-05-18","COUNTRY_CODE":"US","MEAN_MOTION_DDOT":"0.0000000000000"}];
